[{"OBJECT_NAME":"IRIDE FM5","OBJECT_ID":"2025-276AK","EPOCH":"2026-03-09T22:47:21.359328","MEAN_MOTION":15.1881147,"ECCENTRICITY":0.00041727,"INCLINATION":97.4263,"RA_OF_ASC_NODE":144.1872,"ARG_OF_PERICENTER":15.4541,"MEAN_ANOMALY":344.682,"EPHEMERIS_TYPE":0,"CLASSIFICATION_TYPE":"U","NORAD_CAT_ID":66699,"ELEMENT_SET_NO":999,"REV_AT_EPOCH":1535,"BSTAR":0.00040369446,"MEAN_MOTION_DOT":8.339e-5,"MEAN_MOTION_DDOT":0},{"OBJECT_NAME":"CZ-6A DEB","OBJECT_ID":"2024-140FV","EPOCH":"2026-03-09T14:13:09.917760","MEAN_MOTION":15.12617909,"ECCENTRICITY":0.0033796,"INCLINATION":89.006,"RA_OF_ASC_NODE":281.0752,"ARG_OF_PERICENTER":172.4402,"MEAN_ANOMALY":187.7356,"EPHEMERIS_TYPE":0,"CLASSIFICATION_TYPE":"U","NORAD_CAT_ID":60794,"ELEMENT_SET_NO":999,"REV_AT_EPOCH":8371,"BSTAR":0.0056743,"MEAN_MOTION_DOT":0.0010168,"MEAN_MOTION_DDOT":0}]
